{
  "type": "FeatureCollection",
  "features": [
    {
      "type": "Feature",
      "properties": {
        "norad_id": 30547,
        "name": "FENGYUN 1C DEB",
        "group": "fengyun-1c-debris",
        "lat": 25.90040519426121,
        "lon": 24.191755801620868,
        "alt_km": 708.787143708194,
        "timestamp": "2025-12-22T11:33:20.716466+00:00",
        "meta_object_name": "FENGYUN 1C DEB",
        "meta_object_id": "1999-025AKM",
        "meta_epoch": "2025-12-21T13:23:49.693056",
        "meta_mean_motion": 14.37764418,
        "meta_eccentricity": 0.0095514,
        "meta_inclination": 98.9017,
        "meta_ra_of_asc_node": 198.8712,
        "meta_arg_of_pericenter": 191.2853,
        "meta_mean_anomaly": 226.8846,
        "meta_ephemeris_type": 0,
        "meta_classification_type": "U",
        "meta_norad_cat_id": 30547,
        "meta_element_set_no": 999,
        "meta_rev_at_epoch": 98849,
        "meta_bstar": 0.00020239,
        "meta_mean_motion_dot": 5.93e-06,
        "meta_mean_motion_ddot": 0,
        "tle_line1": "1 30547U 99025AKM 25355.55821404  .00000593  00000+0  20239-3 0  9998",
        "tle_line2": "2 30547  98.9017 198.8712 0095514 191.2853 226.8846 14.37764418988493"
      },
      "geometry": {
        "type": "Point",
        "coordinates": [
          24.191755801620868,
          25.90040519426121
        ]
      }
    },
    {
      "type": "Feature",
      "properties": {
        "norad_id": 30548,
        "name": "FENGYUN 1C DEB",
        "group": "fengyun-1c-debris",
        "lat": 31.08755921257796,
        "lon": -110.93243234312683,
        "alt_km": 794.0736088437152,
        "timestamp": "2025-12-22T11:33:20.716476+00:00",
        "meta_object_name": "FENGYUN 1C DEB",
        "meta_object_id": "1999-025AKN",
        "meta_epoch": "2025-12-21T23:42:27.785376",
        "meta_mean_motion": 14.26960912,
        "meta_eccentricity": 0.006798,
        "meta_inclination": 99.6823,
        "meta_ra_of_asc_node": 254.4301,
        "meta_arg_of_pericenter": 309.7869,
        "meta_mean_anomaly": 66.5118,
        "meta_ephemeris_type": 0,
        "meta_classification_type": "U",
        "meta_norad_cat_id": 30548,
        "meta_element_set_no": 999,
        "meta_rev_at_epoch": 14227,
        "meta_bstar": 0.0019269,
        "meta_mean_motion_dot": 4.75e-05,
        "meta_mean_motion_ddot": 0,
        "tle_line1": "1 30548U 99025AKN 25355.98782159  .00004750  00000+0  19269-2 0  9998",
        "tle_line2": "2 30548  99.6823 254.4301 0067980 309.7869  66.5118 14.26960912142273"
      },
      "geometry": {
        "type": "Point",
        "coordinates": [
          -110.93243234312683,
          31.08755921257796
        ]
      }
    },
    {
      "type": "Feature",
      "properties": {
        "norad_id": 30549,
        "name": "FENGYUN 1C DEB",
        "group": "fengyun-1c-debris",
        "lat": -43.504855544950644,
        "lon": 124.34798337205626,
        "alt_km": 884.6532602950556,
        "timestamp": "2025-12-22T11:33:20.716486+00:00",
        "meta_object_name": "FENGYUN 1C DEB",
        "meta_object_id": "1999-025AKP",
        "meta_epoch": "2025-12-22T01:28:08.982912",
        "meta_mean_motion": 13.98784654,
        "meta_eccentricity": 0.0288428,
        "meta_inclination": 98.4795,
        "meta_ra_of_asc_node": 115.8187,
        "meta_arg_of_pericenter": 230.9653,
        "meta_mean_anomaly": 126.5518,
        "meta_ephemeris_type": 0,
        "meta_classification_type": "U",
        "meta_norad_cat_id": 30549,
        "meta_element_set_no": 999,
        "meta_rev_at_epoch": 95424,
        "meta_bstar": 0.0024474,
        "meta_mean_motion_dot": 4.994e-05,
        "meta_mean_motion_ddot": 0,
        "tle_line1": "1 30549U 99025AKP 25356.06121508  .00004994  00000+0  24474-2 0  9998",
        "tle_line2": "2 30549  98.4795 115.8187 0288428 230.9653 126.5518 13.98784654954243"
      },
      "geometry": {
        "type": "Point",
        "coordinates": [
          124.34798337205626,
          -43.504855544950644
        ]
      }
    },
    {
      "type": "Feature",
      "properties": {
        "norad_id": 30550,
        "name": "FENGYUN 1C DEB",
        "group": "fengyun-1c-debris",
        "lat": -59.73148169714692,
        "lon": 55.86384397584998,
        "alt_km": 808.8927268459593,
        "timestamp": "2025-12-22T11:33:20.716496+00:00",
        "meta_object_name": "FENGYUN 1C DEB",
        "meta_object_id": "1999-025AKQ",
        "meta_epoch": "2025-12-21T11:16:09.410304",
        "meta_mean_motion": 14.02460974,
        "meta_eccentricity": 0.01316239,
        "meta_inclination": 99.0539,
        "meta_ra_of_asc_node": 250.7135,
        "meta_arg_of_pericenter": 273.3168,
        "meta_mean_anomaly": 262.0214,
        "meta_ephemeris_type": 0,
        "meta_classification_type": "U",
        "meta_norad_cat_id": 30550,
        "meta_element_set_no": 999,
        "meta_rev_at_epoch": 95517,
        "meta_bstar": 0.0020033524,
        "meta_mean_motion_dot": 3.279e-05,
        "meta_mean_motion_ddot": 0,
        "tle_line1": "1 30550U 99025AKQ 25355.46955336  .00003279  00000+0  20034-2 0  9990",
        "tle_line2": "2 30550  99.0539 250.7135 0131623 273.3168 262.0214 14.02460974955170"
      },
      "geometry": {
        "type": "Point",
        "coordinates": [
          55.86384397584998,
          -59.73148169714692
        ]
      }
    },
    {
      "type": "Feature",
      "properties": {
        "norad_id": 30552,
        "name": "FENGYUN 1C DEB",
        "group": "fengyun-1c-debris",
        "lat": -70.18490456527842,
        "lon": 154.2700985069127,
        "alt_km": 711.7404691428337,
        "timestamp": "2025-12-22T11:33:20.716506+00:00",
        "meta_object_name": "FENGYUN 1C DEB",
        "meta_object_id": "1999-025AKS",
        "meta_epoch": "2025-12-22T01:59:04.098048",
        "meta_mean_motion": 14.54977215,
        "meta_eccentricity": 0.0015261,
        "meta_inclination": 98.8345,
        "meta_ra_of_asc_node": 128.2774,
        "meta_arg_of_pericenter": 226.0149,
        "meta_mean_anomaly": 133.9788,
        "meta_ephemeris_type": 0,
        "meta_classification_type": "U",
        "meta_norad_cat_id": 30552,
        "meta_element_set_no": 999,
        "meta_rev_at_epoch": 97788,
        "meta_bstar": 0.0030096,
        "meta_mean_motion_dot": 0.00012946,
        "meta_mean_motion_ddot": 0,
        "tle_line1": "1 30552U 99025AKS 25356.08268632  .00012946  00000+0  30096-2 0  9997",
        "tle_line2": "2 30552  98.8345 128.2774 0015261 226.0149 133.9788 14.54977215977887"
      },
      "geometry": {
        "type": "Point",
        "coordinates": [
          154.2700985069127,
          -70.18490456527842
        ]
      }
    },
    {
      "type": "Feature",
      "properties": {
        "norad_id": 30553,
        "name": "FENGYUN 1C DEB",
        "group": "fengyun-1c-debris",
        "lat": -59.07908090318252,
        "lon": -103.00984294611176,
        "alt_km": 666.261783732788,
        "timestamp": "2025-12-22T11:33:20.716515+00:00",
        "meta_object_name": "FENGYUN 1C DEB",
        "meta_object_id": "1999-025AKT",
        "meta_epoch": "2025-12-21T05:06:59.154624",
        "meta_mean_motion": 14.72572494,
        "meta_eccentricity": 0.00196997,
        "meta_inclination": 99.1306,
        "meta_ra_of_asc_node": 91.1418,
        "meta_arg_of_pericenter": 126.5343,
        "meta_mean_anomaly": 233.7679,
        "meta_ephemeris_type": 0,
        "meta_classification_type": "U",
        "meta_norad_cat_id": 30553,
        "meta_element_set_no": 999,
        "meta_rev_at_epoch": 98598,
        "meta_bstar": 0.0020012072,
        "meta_mean_motion_dot": 0.00012726,
        "meta_mean_motion_ddot": 0,
        "tle_line1": "1 30553U 99025AKT 25355.21318466  .00012726  00000+0  20012-2 0  9996",
        "tle_line2": "2 30553  99.1306  91.1418 0019699 126.5343 233.7679 14.72572494985989"
      },
      "geometry": {
        "type": "Point",
        "coordinates": [
          -103.00984294611176,
          -59.07908090318252
        ]
      }
    },
    {
      "type": "Feature",
      "properties": {
        "norad_id": 30555,
        "name": "FENGYUN 1C DEB",
        "group": "fengyun-1c-debris",
        "lat": 18.380906609777167,
        "lon": 46.98431704568802,
        "alt_km": 844.7566329691972,
        "timestamp": "2025-12-22T11:33:20.716525+00:00",
        "meta_object_name": "FENGYUN 1C DEB",
        "meta_object_id": "1999-025AKV",
        "meta_epoch": "2025-12-21T15:48:29.029248",
        "meta_mean_motion": 14.20852115,
        "meta_eccentricity": 0.0043079,
        "meta_inclination": 98.7564,
        "meta_ra_of_asc_node": 49.1048,
        "meta_arg_of_pericenter": 245.6268,
        "meta_mean_anomaly": 246.3221,
        "meta_ephemeris_type": 0,
        "meta_classification_type": "U",
        "meta_norad_cat_id": 30555,
        "meta_element_set_no": 999,
        "meta_rev_at_epoch": 97062,
        "meta_bstar": 0.0010498,
        "meta_mean_motion_dot": 2.247e-05,
        "meta_mean_motion_ddot": 0,
        "tle_line1": "1 30555U 99025AKV 25355.65866932  .00002247  00000+0  10498-2 0  9996",
        "tle_line2": "2 30555  98.7564  49.1048 0043079 245.6268 246.3221 14.20852115970624"
      },
      "geometry": {
        "type": "Point",
        "coordinates": [
          46.98431704568802,
          18.380906609777167
        ]
      }
    }
  ]
}